{
  "norad_id": 26388,
  "name": "TDRS 8",
  "history": [
    {
      "epoch": "2026-03-28T20:19:18.742080Z",
      "apogee_km": 35811.70128795787,
      "perigee_km": 35761.451069380055,
      "latitude_deg": -0.8629146100395029,
      "longitude_deg": 84.78496475336924,
      "height_km": 35806.159459964,
      "semi_major_axis_km": 42164.713178668964,
      "eccentricity": 0.00059588,
      "inclination_deg": 12.5584,
      "raan_deg": 31.9922,
      "arg_perigee_deg": 326.0757,
      "mean_anomaly_deg": 217.9209,
      "mean_motion_rev_day": 1.00271852
    }
  ]
}